{
    "links": {
        "self": "http://www.neowsapp.com/rest/v1/neo/3555212?api_key=iIulBulltgU6a56xZRHN4H3l9WmuAYTsLGpBGhQ2"
    },
    "id": "3555212",
    "neo_reference_id": "3555212",
    "name": "(2011 AV55)",
    "designation": "2011 AV55",
    "nasa_jpl_url": "http://ssd.jpl.nasa.gov/sbdb.cgi?sstr=3555212",
    "absolute_magnitude_h": 23.5,
    "estimated_diameter": {
        "kilometers": {
            "estimated_diameter_min": 0.0530340723,
            "estimated_diameter_max": 0.1185877909
        },
        "meters": {
            "estimated_diameter_min": 53.0340723319,
            "estimated_diameter_max": 118.5877908577
        },
        "miles": {
            "estimated_diameter_min": 0.0329538346,
            "estimated_diameter_max": 0.0736870142
        },
        "feet": {
            "estimated_diameter_min": 173.9963058693,
            "estimated_diameter_max": 389.0675677576
        }
    },
    "is_potentially_hazardous_asteroid": false,
    "close_approach_data": [
        {
            "close_approach_date": "2011-01-14",
            "close_approach_date_full": "2011-Jan-14 11:11",
            "epoch_date_close_approach": 1295003460000,
            "relative_velocity": {
                "kilometers_per_second": "13.6670574016",
                "kilometers_per_hour": "49201.4066456272",
                "miles_per_hour": "30571.8407015565"
            },
            "miss_distance": {
                "astronomical": "0.0427585288",
                "lunar": "16.6330677032",
                "kilometers": "6396584.832813656",
                "miles": "3974653.5079782128"
            },
            "orbiting_body": "Earth"
        }
    ],
    "orbital_data": {
        "orbit_id": "8",
        "orbit_determination_date": "2017-04-06 08:54:56",
        "first_observation_date": "2011-01-15",
        "last_observation_date": "2011-01-29",
        "data_arc_in_days": 14,
        "observations_used": 40,
        "orbit_uncertainty": "8",
        "minimum_orbit_intersection": ".02802",
        "jupiter_tisserand_invariant": "3.190",
        "epoch_osculation": "2455578.5",
        "eccentricity": ".606139757674883",
        "semi_major_axis": "2.410800673628257",
        "inclination": "17.71270353232322",
        "ascending_node_longitude": "299.8595031506089",
        "orbital_period": "1367.226234510337",
        "perihelion_distance": ".9495185375127805",
        "perihelion_argument": "145.1161523080898",
        "aphelion_distance": "3.872082809743733",
        "perihelion_time": "2455552.655394457309",
        "mean_anomaly": "6.80506105026645",
        "mean_motion": ".2633068258296927",
        "equinox": "J2000",
        "orbit_class": {
            "orbit_class_type": "APO",
            "orbit_class_description": "Near-Earth asteroid orbits which cross the Earth’s orbit similar to that of 1862 Apollo",
            "orbit_class_range": "a (semi-major axis) > 1.0 AU; q (perihelion) < 1.017 AU"
        }
    },
    "is_sentry_object": false
}